[{"OBJECT_NAME":"DS-EO","OBJECT_ID":"2022-072A","EPOCH":"2026-03-09T23:09:32.454144","MEAN_MOTION":15.12980389,"ECCENTRICITY":0.00042856,"INCLINATION":9.9929,"RA_OF_ASC_NODE":205.6872,"ARG_OF_PERICENTER":305.4389,"MEAN_ANOMALY":54.5426,"EPHEMERIS_TYPE":0,"CLASSIFICATION_TYPE":"U","NORAD_CAT_ID":52935,"ELEMENT_SET_NO":999,"REV_AT_EPOCH":20345,"BSTAR":0.00030023735,"MEAN_MOTION_DOT":6.277e-5,"MEAN_MOTION_DDOT":0},{"OBJECT_NAME":"STARLINK-5509","OBJECT_ID":"2023-094AX","EPOCH":"2026-03-09T22:00:01.999584","MEAN_MOTION":15.13845843,"ECCENTRICITY":0.00013943,"INCLINATION":43.0003,"RA_OF_ASC_NODE":28.4661,"ARG_OF_PERICENTER":253.5777,"MEAN_ANOMALY":28.6341,"EPHEMERIS_TYPE":0,"CLASSIFICATION_TYPE":"U","NORAD_CAT_ID":57263,"ELEMENT_SET_NO":999,"REV_AT_EPOCH":577,"BSTAR":0.0043906245,"MEAN_MOTION_DOT":0.00081487,"MEAN_MOTION_DDOT":0}]
